{
  "norad_id": 51948,
  "name": "2022-023C",
  "history": [
    {
      "epoch": "2026-03-26T21:16:49.755072",
      "apogee_km": 579.5104214934481,
      "perigee_km": 445.4101647687439,
      "latitude_deg": 4.380730396596186,
      "longitude_deg": -12.078049919800833,
      "semi_major_axis_km": 6890.597293131096,
      "eccentricity": 0.00973067,
      "inclination_deg": 63.4882,
      "raan_deg": 190.5233,
      "arg_perigee_deg": 349.1135,
      "mean_anomaly_deg": 10.787,
      "mean_motion_rev_day": 15.17810169
    }
  ]
}